******************************************************************************* Revised: September 10, 2019           Uranus                               799  PHYSICAL DATA (updated 2018-Aug-15):  Mass x10^24 (kg)      = 86.813          Density (g/cm^3)       =  1.271  Equat. radius (1 bar) = 25559+-4 km     Polar radius (km)      = 24973+-20  Vol. Mean Radius (km) = 25362+-12       Flattening             =  0.02293  Geometric Albedo      = 0.51  Sid. rot. period (III)= 17.24+-0.01 h   Sid. rot. rate (rad/s) = -0.000101237  Mean solar day, h     =~17.24           Rocky core mass (Mc/M) =  0.0012          GM (km^3/s^2)         = 5793951.322     GM 1-sigma (km^3/s^2)  = +-4.3   Equ. grav, ge (m/s^2) =  8.87           Pol. grav, gp (m/s^2)  =   9.19+-0.02  Visual magnitude V(1,0)= -7.11  Vis. mag. (opposition)=  +5.52          Obliquity to orbit     = 97.77 deg  Sidereal orbit period = 84.0120465 y    Sidereal orbit period  = 30685.4 d  Mean daily motion     = 0.01176904 dg/d Mean orbit velocity    =  6.8 km/s  Atmos. temp. (1 bar)  =  76+-2 K        Escape speed, km/s     =  21.3             Aroche(ice)/Rp        =  2.20           Hill's sphere rad., Rp = 2700                                 Perihelion   Aphelion    Mean  Solar Constant (W/m^2)         4.09         3.39        3.71  Maximum Planetary IR (W/m^2)   0.72         0.55        0.63  Minimum Planetary IR (W/m^2)   0.72         0.55        0.63*******************************************************************************  *******************************************************************************Ephemeris / WWW_USER Fri Jan 29 14:24:14 2021 Pasadena, USA      / Horizons*******************************************************************************Target body name: Uranus (799)                    {source: ura111}Center body name: Solar System Barycenter (0)     {source: DE431mx}Center-site name: BODY CENTER*******************************************************************************Start time      : A.D. 2021-Jan-01 00:00:00.0000 TDBStop  time      : A.D. 2021-Jan-02 00:00:00.0000 TDBStep-size       : 1440 minutes*******************************************************************************Center geodetic : 0.00000000,0.00000000,0.0000000 {E-lon(deg),Lat(deg),Alt(km)}Center cylindric: 0.00000000,0.00000000,0.0000000 {E-lon(deg),Dxy(km),Dz(km)}Center radii    : (undefined)                                                  Output units    : KM-SOutput type     : GEOMETRIC cartesian statesOutput format   : 2 (position and velocity)Reference frame : Ecliptic of J2000.0*******************************************************************************            JDTDB,            Calendar Date (TDB),                      X,                      Y,                      Z,                     VX,                     VY,                     VZ,**************************************************************************************************************************************************************************************************$$SOE2459215.500000000, A.D. 2021-Jan-01 00:00:00.0000,  2.295337517118387E+09,  1.865127116213594E+09, -2.280921543573439E+07, -4.344308660369480E+00,  4.967784636967886E+00,  7.467911258914928E-02,2459216.500000000, A.D. 2021-Jan-02 00:00:00.0000,  2.294962117306506E+09,  1.865556297793126E+09, -2.280276905686307E+07, -4.345485652359721E+00,  4.966978893385952E+00,  7.459952965640504E-02,$$EOE**************************************************************************************************************************************************************************************************Coordinate system description:  Ecliptic at the standard reference epoch    Reference epoch: J2000.0    X-Y plane: adopted Earth orbital plane at the reference epoch               Note: obliquity of 84381.448 arcseconds (IAU76) wrt ICRF equator    X-axis   : ICRF    Z-axis   : perpendicular to the X-Y plane in the directional (+ or -) sense               of Earth's north pole at the reference epoch.  Symbol meaning:    JDTDB    Julian Day Number, Barycentric Dynamical Time      X      X-component of position vector (km)      Y      Y-component of position vector (km)      Z      Z-component of position vector (km)      VX     X-component of velocity vector (km/sec)                                 VY     Y-component of velocity vector (km/sec)                                 VZ     Z-component of velocity vector (km/sec)                           Geometric states/elements have no aberrations applied. Computations by ...     Solar System Dynamics Group, Horizons On-Line Ephemeris System     4800 Oak Grove Drive, Jet Propulsion Laboratory     Pasadena, CA  91109   USA     Information  : https://ssd.jpl.nasa.gov/     Documentation: https://ssd.jpl.nasa.gov/?horizons_doc     Connect      : https://ssd.jpl.nasa.gov/?horizons (browser)                    telnet ssd.jpl.nasa.gov 6775       (command-line)                    e-mail command interface available                    Script and CGI interfaces available     Author       : Jon.D.Giorgini@jpl.nasa.gov*******************************************************************************